[{"OBJECT_NAME":"TERRA","OBJECT_ID":"1999-068A","EPOCH":"2026-03-09T22:17:18.178368","MEAN_MOTION":14.61015031,"ECCENTRICITY":0.00027192,"INCLINATION":97.9593,"RA_OF_ASC_NODE":122.3543,"ARG_OF_PERICENTER":150.7418,"MEAN_ANOMALY":312.3442,"EPHEMERIS_TYPE":0,"CLASSIFICATION_TYPE":"U","NORAD_CAT_ID":25994,"ELEMENT_SET_NO":999,"REV_AT_EPOCH":39511,"BSTAR":0.00012453868,"MEAN_MOTION_DOT":5.67e-6,"MEAN_MOTION_DDOT":0},{"OBJECT_NAME":"COSMOS 1900","OBJECT_ID":"1987-101A","EPOCH":"2026-03-09T22:07:19.119648","MEAN_MOTION":14.55625081,"ECCENTRICITY":0.00331725,"INCLINATION":66.0844,"RA_OF_ASC_NODE":303.8552,"ARG_OF_PERICENTER":174.2642,"MEAN_ANOMALY":185.8851,"EPHEMERIS_TYPE":0,"CLASSIFICATION_TYPE":"U","NORAD_CAT_ID":18665,"ELEMENT_SET_NO":999,"REV_AT_EPOCH":3403,"BSTAR":5.4100815e-5,"MEAN_MOTION_DOT":1.34e-6,"MEAN_MOTION_DDOT":0}]
